1 29155U 06018A   10037.37007896 -.00000094  00000-0  10000-3 0  9592
2 29155 000.4503 090.2599 0002673 166.1422 267.8543 01.00272325 13607